start=new Date('2022-10-26T00:00:00.000Z').valueOf();
sats=[{"LAUNCH_DATE":"2021-05-09","NORAD_CAT_ID":"48442","MEAN_MOTION":"15.06387554","CENTER_NAME":"EARTH","TLE_LINE1":"1 48442U 21040Q   22298.73992258 -.00001044  00000-0 -51229-4 0  9991","SITE":"AFETR","COUNTRY_CODE":"US","RA_OF_ASC_NODE":"307.5807","SEMIMAJOR_AXIS":"6925.387","PERIAPSIS":"545.746","GP_ID":"216153842","REF_FRAME":"TEME","APOAPSIS":"548.757","BSTAR":"-0.00005122900000","RCS_SIZE":"LARGE","ECCENTRICITY":"0.00021740","EPHEMERIS_TYPE":"0","OBJECT_TYPE":"PAYLOAD","MEAN_MOTION_DDOT":"0.0000000000000","TIME_SYSTEM":"UTC","ELEMENT_SET_NO":"999","MEAN_MOTION_DOT":"-0.00001044","MEAN_ANOMALY":"318.1114","INCLINATION":"53.0548","PERIOD":"95.593","TLE_LINE2":"2 48442  53.0548 307.5807 0002174  42.0041 318.1114 15.06387554 81095","ARG_OF_PERICENTER":"42.0041","EPOCH":"2022-10-25T17:45:29.310912","REV_AT_EPOCH":"8109","CLASSIFICATION_TYPE":"U","DECAY_DATE":null,"OBJECT_NAME":"STARLINK-2644","OBJECT_ID":"2021-040Q","MEAN_ELEMENT_THEORY":"SGP4","FILE":"3633327"},{"OBJECT_TYPE":"PAYLOAD","EPHEMERIS_TYPE":"0","ECCENTRICITY":"0.00021220","MEAN_MOTION_DDOT":"0.0000000000000","PERIAPSIS":"545.754","APOAPSIS":"548.694","GP_ID":"216154073","REF_FRAME":"TEME","RCS_SIZE":"LARGE","BSTAR":"0.00005731500000","RA_OF_ASC_NODE":"307.5952","COUNTRY_CODE":"US","SEMIMAJOR_AXIS":"6925.359","NORAD_CAT_ID":"48443","LAUNCH_DATE":"2021-05-09","TLE_LINE1":"1 48443U 21040R   22298.73621819  .00000572  00000-0  57315-4 0  9999","SITE":"AFETR","CENTER_NAME":"EARTH","MEAN_MOTION":"15.06396606","OBJECT_ID":"2021-040R","MEAN_ELEMENT_THEORY":"SGP4","FILE":"3633327","EPOCH":"2022-10-25T17:40:09.251616","REV_AT_EPOCH":"8109","CLASSIFICATION_TYPE":"U","DECAY_DATE":null,"OBJECT_NAME":"STARLINK-2663","MEAN_ANOMALY":"311.0147","INCLINATION":"53.0542","TLE_LINE2":"2 48443  53.0542 307.5952 0002122  49.1026 311.0147 15.06396606 81091","PERIOD":"95.592","ARG_OF_PERICENTER":"49.1026","ELEMENT_SET_NO":"999","TIME_SYSTEM":"UTC","MEAN_MOTION_DOT":"0.00000572"},{"REV_AT_EPOCH":"8109","EPOCH":"2022-10-25T17:34:51.532896","OBJECT_NAME":"STARLINK-2645","DECAY_DATE":null,"CLASSIFICATION_TYPE":"U","OBJECT_ID":"2021-040S","FILE":"3633327","MEAN_ELEMENT_THEORY":"SGP4","TIME_SYSTEM":"UTC","ELEMENT_SET_NO":"999","MEAN_MOTION_DOT":"0.00000127","PERIOD":"95.593","TLE_LINE2":"2 48444  53.0554 307.6080 0002075  39.8289 320.2852 15.06390544 81092","MEAN_ANOMALY":"320.2852","INCLINATION":"53.0554","ARG_OF_PERICENTER":"39.8289","REF_FRAME":"TEME","GP_ID":"216153340","APOAPSIS":"548.680","PERIAPSIS":"545.806","BSTAR":"0.00002744700000","RCS_SIZE":"LARGE","MEAN_MOTION_DDOT":"0.0000000000000","ECCENTRICITY":"0.00020750","EPHEMERIS_TYPE":"0","OBJECT_TYPE":"PAYLOAD","LAUNCH_DATE":"2021-05-09","NORAD_CAT_ID":"48444","MEAN_MOTION":"15.06390544","CENTER_NAME":"EARTH","TLE_LINE1":"1 48444U 21040S   22298.73254089  .00000127  00000-0  27447-4 0  9990","SITE":"AFETR","SEMIMAJOR_AXIS":"6925.378","COUNTRY_CODE":"US","RA_OF_ASC_NODE":"307.6080"},{"PERIAPSIS":"545.585","APOAPSIS":"548.869","REF_FRAME":"TEME","GP_ID":"216153091","BSTAR":"-0.00002109600000","RCS_SIZE":"LARGE","OBJECT_TYPE":"PAYLOAD","EPHEMERIS_TYPE":"0","ECCENTRICITY":"0.00023710","MEAN_MOTION_DDOT":"0.0000000000000","NORAD_CAT_ID":"48445","LAUNCH_DATE":"2021-05-09","TLE_LINE1":"1 48445U 21040T   22298.72885610 -.00000596  00000-0 -21096-4 0  9996","SITE":"AFETR","MEAN_MOTION":"15.06395755","CENTER_NAME":"EARTH","RA_OF_ASC_NODE":"307.6227","COUNTRY_CODE":"US","SEMIMAJOR_AXIS":"6925.362","EPOCH":"2022-10-25T17:29:33.167040","REV_AT_EPOCH":"8109","CLASSIFICATION_TYPE":"U","DECAY_DATE":null,"OBJECT_NAME":"STARLINK-2634","OBJECT_ID":"2021-040T","MEAN_ELEMENT_THEORY":"SGP4","FILE":"3633327","ELEMENT_SET_NO":"999","TIME_SYSTEM":"UTC","MEAN_MOTION_DOT":"-0.00000596","MEAN_ANOMALY":"322.1460","INCLINATION":"53.0543","TLE_LINE2":"2 48445  53.0543 307.6227 0002371  37.9696 322.1460 15.06395755 81099","PERIOD":"95.592","ARG_OF_PERICENTER":"37.9696"},{"DECAY_DATE":null,"OBJECT_NAME":"STARLINK-2247","CLASSIFICATION_TYPE":"U","REV_AT_EPOCH":"8109","EPOCH":"2022-10-25T17:24:13.804128","FILE":"3633327","MEAN_ELEMENT_THEORY":"SGP4","OBJECT_ID":"2021-040U","MEAN_MOTION_DOT":"-0.00000014","ELEMENT_SET_NO":"999","TIME_SYSTEM":"UTC","ARG_OF_PERICENTER":"36.6597","TLE_LINE2":"2 48446  53.0537 307.6475 0002643  36.6597 323.4572 15.06395774 81095","PERIOD":"95.592","INCLINATION":"53.0537","MEAN_ANOMALY":"323.4572","BSTAR":"0.00001796600000","RCS_SIZE":"LARGE","APOAPSIS":"549.057","REF_FRAME":"TEME","GP_ID":"216154342","PERIAPSIS":"545.396","MEAN_MOTION_DDOT":"0.0000000000000","OBJECT_TYPE":"PAYLOAD","EPHEMERIS_TYPE":"0","ECCENTRICITY":"0.00026430","SITE":"AFETR","TLE_LINE1":"1 48446U 21040U   22298.72515977 -.00000014  00000-0  17966-4 0  9998","MEAN_MOTION":"15.06395774","CENTER_NAME":"EARTH","NORAD_CAT_ID":"48446","LAUNCH_DATE":"2021-05-09","SEMIMAJOR_AXIS":"6925.362","RA_OF_ASC_NODE":"307.6475","COUNTRY_CODE":"US"},{"BSTAR":"-0.00011229000000","RCS_SIZE":"LARGE","REF_FRAME":"TEME","GP_ID":"216154573","APOAPSIS":"548.856","PERIAPSIS":"545.689","MEAN_MOTION_DDOT":"0.0000000000000","ECCENTRICITY":"0.00022870","OBJECT_TYPE":"PAYLOAD","EPHEMERIS_TYPE":"0","MEAN_MOTION":"15.06380726","CENTER_NAME":"EARTH","TLE_LINE1":"1 48447U 21040V   22298.72149467 -.00001953  00000-0 -11229-3 0  9995","SITE":"AFETR","LAUNCH_DATE":"2021-05-09","NORAD_CAT_ID":"48447","SEMIMAJOR_AXIS":"6925.408","COUNTRY_CODE":"US","RA_OF_ASC_NODE":"307.6630","OBJECT_NAME":"STARLINK-2269","DECAY_DATE":null,"CLASSIFICATION_TYPE":"U","REV_AT_EPOCH":"8109","EPOCH":"2022-10-25T17:18:57.139488","FILE":"3633327","MEAN_ELEMENT_THEORY":"SGP4","OBJECT_ID":"2021-040V","MEAN_MOTION_DOT":"-0.00001953","TIME_SYSTEM":"UTC","ELEMENT_SET_NO":"999","ARG_OF_PERICENTER":"42.8277","PERIOD":"95.593","TLE_LINE2":"2 48447  53.0559 307.6630 0002287  42.8277 317.2890 15.06380726 81096","INCLINATION":"53.0559","MEAN_ANOMALY":"317.2890"},{"MEAN_MOTION_DDOT":"0.0000000000000","OBJECT_TYPE":"PAYLOAD","EPHEMERIS_TYPE":"0","ECCENTRICITY":"0.00023070","APOAPSIS":"548.843","GP_ID":"216152841","REF_FRAME":"TEME","PERIAPSIS":"545.648","BSTAR":"-0.00011290000000","RCS_SIZE":"LARGE","SEMIMAJOR_AXIS":"6925.380","RA_OF_ASC_NODE":"307.5460","COUNTRY_CODE":"US","NORAD_CAT_ID":"48448","LAUNCH_DATE":"2021-05-09","SITE":"AFETR","TLE_LINE1":"1 48448U 21040W   22298.74633671 -.00001963  00000-0 -11290-3 0  9992","CENTER_NAME":"EARTH","MEAN_MOTION":"15.06389608","OBJECT_ID":"2021-040W","FILE":"3633327","MEAN_ELEMENT_THEORY":"SGP4","REV_AT_EPOCH":"8109","EPOCH":"2022-10-25T17:54:43.491744","DECAY_DATE":null,"OBJECT_NAME":"STARLINK-2632","CLASSIFICATION_TYPE":"U","TLE_LINE2":"2 48448  53.0546 307.5460 0002307  35.9250 324.1893 15.06389608 81098","PERIOD":"95.593","INCLINATION":"53.0546","MEAN_ANOMALY":"324.1893","ARG_OF_PERICENTER":"35.9250","ELEMENT_SET_NO":"999","TIME_SYSTEM":"UTC","MEAN_MOTION_DOT":"-0.00001963"},{"ARG_OF_PERICENTER":"44.8547","PERIOD":"95.593","TLE_LINE2":"2 48449  53.0530 309.1648 0002397  44.8547 315.2635 15.06379569 81040","MEAN_ANOMALY":"315.2635","INCLINATION":"53.0530","MEAN_MOTION_DOT":"-0.00002826","TIME_SYSTEM":"UTC","ELEMENT_SET_NO":"999","FILE":"3633075","MEAN_ELEMENT_THEORY":"SGP4","OBJECT_ID":"2021-040X","DECAY_DATE":null,"OBJECT_NAME":"STARLINK-2655","CLASSIFICATION_TYPE":"U","REV_AT_EPOCH":"8104","EPOCH":"2022-10-25T09:15:56.489472","SEMIMAJOR_AXIS":"6925.411","COUNTRY_CODE":"US","RA_OF_ASC_NODE":"309.1648","MEAN_MOTION":"15.06379569","CENTER_NAME":"EARTH","SITE":"AFETR","TLE_LINE1":"1 48449U 21040X   22298.38607048 -.00002826  00000-0 -17095-3 0  9990","LAUNCH_DATE":"2021-05-09","NORAD_CAT_ID":"48449","MEAN_MOTION_DDOT":"0.0000000000000","ECCENTRICITY":"0.00023970","EPHEMERIS_TYPE":"0","OBJECT_TYPE":"PAYLOAD","RCS_SIZE":"LARGE","BSTAR":"-0.00017095000000","GP_ID":"216122137","REF_FRAME":"TEME","APOAPSIS":"548.936","PERIAPSIS":"545.616"},{"BSTAR":"0.00001126300000","RCS_SIZE":"LARGE","PERIAPSIS":"545.491","GP_ID":"216122387","REF_FRAME":"TEME","APOAPSIS":"548.989","ECCENTRICITY":"0.00025250","OBJECT_TYPE":"PAYLOAD","EPHEMERIS_TYPE":"0","MEAN_MOTION_DDOT":"0.0000000000000","CENTER_NAME":"EARTH","MEAN_MOTION":"15.06391338","SITE":"AFETR","TLE_LINE1":"1 48450U 21040Y   22298.44871709 -.00000114  00000-0  11263-4 0  9995","LAUNCH_DATE":"2021-05-09","NORAD_CAT_ID":"48450","COUNTRY_CODE":"US","RA_OF_ASC_NODE":"308.8776","SEMIMAJOR_AXIS":"6925.375","CLASSIFICATION_TYPE":"U","OBJECT_NAME":"STARLINK-2660","DECAY_DATE":null,"EPOCH":"2022-10-25T10:46:09.156576","REV_AT_EPOCH":"8105","MEAN_ELEMENT_THEORY":"SGP4","FILE":"3633075","OBJECT_ID":"2021-040Y","MEAN_MOTION_DOT":"-0.00000114","TIME_SYSTEM":"UTC","ELEMENT_SET_NO":"999","ARG_OF_PERICENTER":"34.8983","MEAN_ANOMALY":"325.2171","INCLINATION":"53.0549","PERIOD":"95.593","TLE_LINE2":"2 48450  53.0549 308.8776 0002525  34.8983 325.2171 15.06391338 81051"},{"OBJECT_TYPE":"PAYLOAD","EPHEMERIS_TYPE":"0","ECCENTRICITY":"0.00021040","MEAN_MOTION_DDOT":"0.0000000000000","RCS_SIZE":"LARGE","BSTAR":"-0.00012376000000","PERIAPSIS":"545.796","APOAPSIS":"548.711","GP_ID":"216154074","REF_FRAME":"TEME","RA_OF_ASC_NODE":"308.6204","COUNTRY_CODE":"US","SEMIMAJOR_AXIS":"6925.389","TLE_LINE1":"1 48451U 21040Z   22298.51413880 -.00002124  00000-0 -12376-3 0  9995","SITE":"AFETR","CENTER_NAME":"EARTH","MEAN_MOTION":"15.06386935","NORAD_CAT_ID":"48451","LAUNCH_DATE":"2021-05-09","MEAN_ELEMENT_THEORY":"SGP4","FILE":"3633327","OBJECT_ID":"2021-040Z","CLASSIFICATION_TYPE":"U","DECAY_DATE":null,"OBJECT_NAME":"STARLINK-2652","EPOCH":"2022-10-25T12:20:21.592320","REV_AT_EPOCH":"8106","ARG_OF_PERICENTER":"53.4188","INCLINATION":"53.0541","MEAN_ANOMALY":"306.6995","TLE_LINE2":"2 48451  53.0541 308.6204 0002104  53.4188 306.6995 15.06386935 81060","PERIOD":"95.593","MEAN_MOTION_DOT":"-0.00002124","ELEMENT_SET_NO":"999","TIME_SYSTEM":"UTC"}];
